OBJECT_NAME,OBJECT_ID,EPOCH,MEAN_MOTION,ECCENTRICITY,INCLINATION,RA_OF_ASC_NODE,ARG_OF_PERICENTER,MEAN_ANOMALY,EPHEMERIS_TYPE,CLASSIFICATION_TYPE,NORAD_CAT_ID,ELEMENT_SET_NO,REV_AT_EPOCH,BSTAR,MEAN_MOTION_DOT,MEAN_MOTION_DDOT
ONEWEB-0597,2022-166X,2026-06-19T17:02:19.325760,13.21827107,.000199,87.9254,243.4855,94.9382,265.1979,0,U,54663,999,17187,.3544029E-3,.159E-5,0
ONEWEB-0600,2022-166Y,2026-06-19T16:35:40.139520,13.21824508,.00018153,87.9251,243.4807,97.4720,262.6620,0,U,54664,999,17184,.28951121E-3,.133E-5,0
ONEWEB-0601,2022-166Z,2026-06-19T18:12:33.865920,13.21825668,.00020491,87.9249,243.4833,91.5657,268.5712,0,U,54665,999,17204,.25729067E-3,.119E-5,0
ONEWEB-0602,2022-166AA,2026-06-19T17:22:54.209856,13.21826786,.00017361,87.9251,243.4961,96.5016,263.6315,0,U,54666,999,17188,.19957959E-3,.95E-6,0
ONEWEB-0603,2022-166AB,2026-06-19T17:31:23.658816,13.21826571,.00019545,87.9261,243.4522,96.1903,263.9454,0,U,54667,999,17181,.5325863E-5,.15E-6,0
ONEWEB-0604,2022-166AC,2026-06-19T17:14:24.842112,13.21828004,.00020091,87.9262,243.4702,101.3100,258.8259,0,U,54668,999,17177,.5311098E-4,.35E-6,0
ONEWEB-0605,2022-166AD,2026-06-19T17:04:45.065280,13.21827013,.00024826,87.9251,243.4849,88.2282,271.9137,0,U,54669,999,17184,.17513161E-4,.2E-6,0
ONEWEB-0606,2022-166AE,2026-06-19T15:47:13.951104,13.21827071,.00020339,87.9251,243.5080,103.6181,256.5180,0,U,54670,999,17189,.39034321E-4,.29E-6,0
ONEWEB-0607,2022-166AF,2026-06-19T16:47:46.846464,13.21824805,.00019348,87.9259,243.4706,95.2585,264.8770,0,U,54671,999,17187,.21831189E-3,.103E-5,0
ONEWEB-0608,2022-166AG,2026-06-19T16:57:27.198720,13.21827944,.00022251,87.9265,243.4662,85.6187,274.5201,0,U,54672,999,17188,.23603717E-3,.111E-5,0
ONEWEB-0610,2022-166AH,2026-06-19T18:17:24.355680,13.21824332,.00020176,87.9253,243.4691,81.1266,279.0096,0,U,54673,999,17179,.70036424E-4,.42E-6,0
ONEWEB-0611,2022-166AJ,2026-06-19T18:07:41.515968,13.21824718,.00020492,87.9251,243.4663,102.5782,257.5581,0,U,54674,999,17178,.47421759E-4,.33E-6,0
ONEWEB-0612,2022-166AK,2026-06-19T16:38:06.135648,13.21825448,.00020632,87.9265,243.4744,94.0956,266.0414,0,U,54675,999,17176,.15382218E-3,.77E-6,0
ONEWEB-0615,2022-166AL,2026-06-19T17:58:02.295552,13.21826665,.00018967,87.9253,243.4778,106.0802,254.0541,0,U,54676,999,17178,.16858461E-3,.83E-6,0
ONEWEB-0655,2022-166AM,2026-06-19T17:24:07.369920,13.21826974,.00017669,87.9253,243.4836,95.7089,264.4247,0,U,54677,999,17177,.96035507E-4,.53E-6,0
ONEWEB-0659,2022-166AN,2026-06-19T17:48:20.052000,13.21828470,.00020647,87.9250,243.4802,99.7714,260.3653,0,U,54678,999,17186,.12484451E-3,.65E-6,0
ONEWEB-0685,2022-166AP,2026-06-19T17:48:23.802624,13.21851581,.00014945,87.9246,243.4722,137.9921,222.1328,0,U,54679,999,17175,.9361388E-3,.4E-5,0
ONEWEB-0712,2022-166AQ,2026-06-19T17:16:40.535904,13.16594569,.00015476,87.9098,228.2717,93.9282,266.2026,0,U,54680,999,17239,-.13416781E-4,.8E-7,0
ONEWEB-0714,2022-166AR,2026-06-19T17:55:36.040224,13.21824572,.00017121,87.9250,243.4688,100.4863,259.6463,0,U,54681,999,17187,.16760598E-3,.82E-6,0
ONEWEB-0532,2023-004A,2026-06-19T05:37:57.835488,13.17821464,.00022276,87.9130,5.4572,87.0436,273.0950,0,U,55140,999,16785,-.13880505E-3,-.41E-6,0
ONEWEB-0533,2023-004B,2026-06-19T21:31:39.985248,13.12443144,.00017875,87.8947,350.1309,86.4976,273.6357,0,U,55141,999,16841,-.34252823E-3,-.111E-5,0
ONEWEB-0541,2023-004C,2026-06-19T14:58:14.903904,13.11418208,.00019465,87.8896,20.5730,90.5258,269.6093,0,U,55142,999,16626,-.12706321E-2,-.438E-5,0
ONEWEB-0543,2023-004D,2026-06-19T21:29:24.955008,13.18685243,.00016246,87.9165,334.9303,93.4513,266.6805,0,U,55143,999,17005,-.52961219E-4,-.8E-7,0
ONEWEB-0544,2023-004E,2026-06-19T21:19:42.275136,13.18685964,.00017739,87.9162,334.9314,99.9157,260.2175,0,U,55144,999,17005,.89091603E-4,.48E-6,0
ONEWEB-0560,2023-004F,2026-06-19T21:09:59.234112,13.18686845,.0001686,87.9163,334.9221,101.5745,258.5576,0,U,55145,999,17006,.43001343E-4,.3E-6,0
ONEWEB-0565,2023-004G,2026-06-19T21:00:17.089920,13.18685660,.00021324,87.9155,334.9510,103.3089,256.8281,0,U,55146,999,17005,.13920221E-3,.68E-6,0
ONEWEB-0567,2023-004H,2026-06-19T11:44:15.857088,13.18685967,.00019568,87.9164,335.0124,104.3975,255.7374,0,U,55147,999,17000,.68512125E-4,.4E-6,0
ONEWEB-0569,2023-004J,2026-06-19T19:50:26.068704,13.13471471,.00018197,87.8966,319.6939,124.1357,235.9945,0,U,55148,999,17052,-.66665753E-4,-.12E-6,0
ONEWEB-0570,2023-004K,2026-06-19T20:38:25.273536,13.18685822,.00022575,87.9163,334.9363,93.6609,266.4781,0,U,55149,999,17004,.22278361E-4,.22E-6,0
ONEWEB-0571,2023-004L,2026-06-19T22:17:57.942240,13.18689429,.00023971,87.9164,334.9223,124.7388,235.3970,0,U,55150,999,17006,.42061665E-4,.3E-6,0
