ONEWEB-0597             
1 54663U 22166X   26170.70994590  .00000159  00000+0  35440-3 0  9993
2 54663  87.9254 243.4855 0001990  94.9382 265.1979 13.21827107171871
ONEWEB-0600             
1 54664U 22166Y   26170.69143680  .00000133  00000+0  28951-3 0  9999
2 54664  87.9251 243.4807 0001815  97.4720 262.6620 13.21824508171840
ONEWEB-0601             
1 54665U 22166Z   26170.75872530  .00000119  00000+0  25729-3 0  9994
2 54665  87.9249 243.4833 0002049  91.5657 268.5712 13.21825668172049
ONEWEB-0602             
1 54666U 22166AA  26170.72423854  .00000095  00000+0  19958-3 0  9993
2 54666  87.9251 243.4961 0001736  96.5016 263.6315 13.21826786171889
ONEWEB-0603             
1 54667U 22166AB  26170.73013494  .00000015  00000+0  53259-5 0  9996
2 54667  87.9261 243.4522 0001954  96.1903 263.9454 13.21826571171819
ONEWEB-0604             
1 54668U 22166AC  26170.71834308  .00000035  00000+0  53111-4 0  9998
2 54668  87.9262 243.4702 0002009 101.3100 258.8259 13.21828004171775
ONEWEB-0605             
1 54669U 22166AD  26170.71163270  .00000020  00000+0  17513-4 0  9992
2 54669  87.9251 243.4849 0002482  88.2282 271.9137 13.21827013171843
ONEWEB-0606             
1 54670U 22166AE  26170.65780036  .00000029  00000+0  39034-4 0  9993
2 54670  87.9251 243.5080 0002033 103.6181 256.5180 13.21827071171891
ONEWEB-0607             
1 54671U 22166AF  26170.69984776  .00000103  00000+0  21831-3 0  9993
2 54671  87.9259 243.4706 0001934  95.2585 264.8770 13.21824805171874
ONEWEB-0608             
1 54672U 22166AG  26170.70656480  .00000111  00000+0  23604-3 0  9993
2 54672  87.9265 243.4662 0002225  85.6187 274.5201 13.21827944171883
ONEWEB-0610             
1 54673U 22166AH  26170.76208745  .00000042  00000+0  70036-4 0  9992
2 54673  87.9253 243.4691 0002017  81.1266 279.0096 13.21824332171791
ONEWEB-0611             
1 54674U 22166AJ  26170.75534162  .00000033  00000+0  47422-4 0  9990
2 54674  87.9251 243.4663 0002049 102.5782 257.5581 13.21824718171782
ONEWEB-0612             
1 54675U 22166AK  26170.69312657  .00000077  00000+0  15382-3 0  9994
2 54675  87.9265 243.4744 0002063  94.0956 266.0414 13.21825448171761
ONEWEB-0615             
1 54676U 22166AL  26170.74863768  .00000083  00000+0  16858-3 0  9991
2 54676  87.9253 243.4778 0001896 106.0802 254.0541 13.21826665171785
ONEWEB-0655             
1 54677U 22166AM  26170.72508530  .00000053  00000+0  96036-4 0  9997
2 54677  87.9253 243.4836 0001766  95.7089 264.4247 13.21826974171778
ONEWEB-0659             
1 54678U 22166AN  26170.74189875  .00000065  00000+0  12484-3 0  9994
2 54678  87.9250 243.4802 0002064  99.7714 260.3653 13.21828470171869
ONEWEB-0685             
1 54679U 22166AP  26170.74194216  .00000400  00000+0  93614-3 0  9997
2 54679  87.9246 243.4722 0001494 137.9921 222.1328 13.21851581171759
ONEWEB-0712             
1 54680U 22166AQ  26170.71991361  .00000008  00000+0 -13417-4 0  9991
2 54680  87.9098 228.2717 0001547  93.9282 266.2026 13.16594569172390
ONEWEB-0714             
1 54681U 22166AR  26170.74694491  .00000082  00000+0  16761-3 0  9994
2 54681  87.9250 243.4688 0001712 100.4863 259.6463 13.21824572171879
ONEWEB-0532             
1 55140U 23004A   26170.23469717 -.00000041  00000+0 -13881-3 0  9999
2 55140  87.9130   5.4572 0002227  87.0436 273.0950 13.17821464167859
ONEWEB-0533             
1 55141U 23004B   26170.89699057 -.00000111  00000+0 -34253-3 0  9998
2 55141  87.8947 350.1309 0001787  86.4976 273.6357 13.12443144168415
ONEWEB-0541             
1 55142U 23004C   26170.62378361 -.00000438  00000+0 -12706-2 0  9992
2 55142  87.8896  20.5730 0001946  90.5258 269.6093 13.11418208166266
ONEWEB-0543             
1 55143U 23004D   26170.89542772 -.00000008  00000+0 -52961-4 0  9993
2 55143  87.9165 334.9303 0001624  93.4513 266.6805 13.18685243170056
ONEWEB-0544             
1 55144U 23004E   26170.88868374  .00000048  00000+0  89092-4 0  9999
2 55144  87.9162 334.9314 0001773  99.9157 260.2175 13.18685964170056
ONEWEB-0560             
1 55145U 23004F   26170.88193558  .00000030  00000+0  43001-4 0  9996
2 55145  87.9163 334.9221 0001686 101.5745 258.5576 13.18686845170066
ONEWEB-0565             
1 55146U 23004G   26170.87519780  .00000068  00000+0  13920-3 0  9992
2 55146  87.9155 334.9510 0002132 103.3089 256.8281 13.18685660170054
ONEWEB-0567             
1 55147U 23004H   26170.48907242  .00000040  00000+0  68512-4 0  9992
2 55147  87.9164 335.0124 0001956 104.3975 255.7374 13.18685967170002
ONEWEB-0569             
1 55148U 23004J   26170.82669061 -.00000012  00000+0 -66666-4 0  9994
2 55148  87.8966 319.6939 0001819 124.1357 235.9945 13.13471471170525
ONEWEB-0570             
1 55149U 23004K   26170.86001474  .00000022  00000+0  22278-4 0  9997
2 55149  87.9163 334.9363 0002257  93.6609 266.4781 13.18685822170040
ONEWEB-0571             
1 55150U 23004L   26170.92914285  .00000030  00000+0  42062-4 0  9991
2 55150  87.9164 334.9223 0002397 124.7388 235.3970 13.18689429170067
